[{"OBJECT_NAME":"COSMOS 2573","OBJECT_ID":"2023-201A","EPOCH":"2026-03-10T00:09:51.763968","MEAN_MOTION":15.24110739,"ECCENTRICITY":0.00025748,"INCLINATION":97.6178,"RA_OF_ASC_NODE":16.7239,"ARG_OF_PERICENTER":58.72,"MEAN_ANOMALY":301.4289,"EPHEMERIS_TYPE":0,"CLASSIFICATION_TYPE":"U","NORAD_CAT_ID":58614,"ELEMENT_SET_NO":999,"REV_AT_EPOCH":12337,"BSTAR":0.00023292354,"MEAN_MOTION_DOT":5.586e-5,"MEAN_MOTION_DDOT":0},{"OBJECT_NAME":"FENGYUN 1C DEB","OBJECT_ID":"1999-025FBF","EPOCH":"2026-03-06T07:33:49.292640","MEAN_MOTION":15.04395515,"ECCENTRICITY":0.01189701,"INCLINATION":98.9505,"RA_OF_ASC_NODE":84.7158,"ARG_OF_PERICENTER":75.0888,"MEAN_ANOMALY":286.3472,"EPHEMERIS_TYPE":0,"CLASSIFICATION_TYPE":"U","NORAD_CAT_ID":47029,"ELEMENT_SET_NO":999,"REV_AT_EPOCH":4330,"BSTAR":0.0027080259,"MEAN_MOTION_DOT":0.00044409,"MEAN_MOTION_DDOT":0}]
